start=new Date('2022-07-14T00:00:00.000Z').valueOf();
sats=[{"OBJECT_TYPE":"PAYLOAD","SEMIMAJOR_AXIS":"6925.343","EPOCH":"2022-07-13T20:22:26.565312","BSTAR":"-0.00005506700000","REV_AT_EPOCH":"9852","EPHEMERIS_TYPE":"0","OBJECT_ID":"2020-070AT","TLE_LINE2":"2 46573  53.0554  33.9379 0001523  65.9279 294.1869 15.06401902 98523","MEAN_ELEMENT_THEORY":"SGP4","FILE":"3513188","MEAN_MOTION_DOT":"-0.00001102","NORAD_CAT_ID":"46573","PERIAPSIS":"546.153","ECCENTRICITY":"0.00015230","COUNTRY_CODE":"US","MEAN_ANOMALY":"294.1869","CENTER_NAME":"EARTH","RCS_SIZE":"LARGE","INCLINATION":"53.0554","MEAN_MOTION_DDOT":"0.0000000000000","MEAN_MOTION":"15.06401902","RA_OF_ASC_NODE":"33.9379","ELEMENT_SET_NO":"999","LAUNCH_DATE":"2020-10-06","OBJECT_NAME":"STARLINK-1650","SITE":"AFETR","ARG_OF_PERICENTER":"65.9279","TIME_SYSTEM":"UTC","CLASSIFICATION_TYPE":"U","PERIOD":"95.592","TLE_LINE1":"1 46573U 20070AT  22194.84891858 -.00001102  00000-0 -55067-4 0  9996","DECAY_DATE":null,"GP_ID":"208064207","APOAPSIS":"548.262","REF_FRAME":"TEME"},{"APOAPSIS":"548.025","REF_FRAME":"TEME","TIME_SYSTEM":"UTC","ARG_OF_PERICENTER":"65.9662","SITE":"AFETR","OBJECT_NAME":"STARLINK-1660","LAUNCH_DATE":"2020-10-06","ELEMENT_SET_NO":"999","GP_ID":"208064949","TLE_LINE1":"1 46574U 20070AU  22194.83511159 -.00000089  00000-0  12939-4 0  9992","PERIOD":"95.592","DECAY_DATE":null,"CLASSIFICATION_TYPE":"U","CENTER_NAME":"EARTH","RCS_SIZE":"LARGE","RA_OF_ASC_NODE":"34.0199","MEAN_MOTION":"15.06401516","MEAN_MOTION_DDOT":"0.0000000000000","INCLINATION":"53.0551","FILE":"3513188","NORAD_CAT_ID":"46574","MEAN_MOTION_DOT":"-0.00000089","MEAN_ELEMENT_THEORY":"SGP4","TLE_LINE2":"2 46574  53.0551  34.0199 0001179  65.9662 294.1450 15.06401516 98523","OBJECT_ID":"2020-070AU","REV_AT_EPOCH":"9852","EPHEMERIS_TYPE":"0","BSTAR":"0.00001293900000","EPOCH":"2022-07-13T20:02:33.641376","SEMIMAJOR_AXIS":"6925.344","OBJECT_TYPE":"PAYLOAD","MEAN_ANOMALY":"294.1450","ECCENTRICITY":"0.00011790","COUNTRY_CODE":"US","PERIAPSIS":"546.392"},{"MEAN_ANOMALY":"289.2640","COUNTRY_CODE":"US","ECCENTRICITY":"0.00015060","PERIAPSIS":"546.148","TLE_LINE2":"2 46575  53.0559   9.3689 0001506  70.8512 289.2640 15.06407524 98851","MEAN_ELEMENT_THEORY":"SGP4","EPHEMERIS_TYPE":"0","REV_AT_EPOCH":"9885","OBJECT_ID":"2020-070AV","FILE":"3513188","MEAN_MOTION_DOT":"-0.00000803","NORAD_CAT_ID":"46575","OBJECT_TYPE":"PAYLOAD","BSTAR":"-0.00003500700000","EPOCH":"2022-07-13T18:11:45.824928","SEMIMAJOR_AXIS":"6925.325","RA_OF_ASC_NODE":"9.3689","INCLINATION":"53.0559","MEAN_MOTION":"15.06407524","MEAN_MOTION_DDOT":"0.0000000000000","RCS_SIZE":"LARGE","CENTER_NAME":"EARTH","GP_ID":"208063207","CLASSIFICATION_TYPE":"U","DECAY_DATE":null,"TLE_LINE1":"1 46575U 20070AV  22194.75816927 -.00000803  00000-0 -35007-4 0  9991","PERIOD":"95.592","SITE":"AFETR","ARG_OF_PERICENTER":"70.8512","TIME_SYSTEM":"UTC","OBJECT_NAME":"STARLINK-1675","ELEMENT_SET_NO":"999","LAUNCH_DATE":"2020-10-06","REF_FRAME":"TEME","APOAPSIS":"548.233"},{"INCLINATION":"53.0545","MEAN_MOTION_DDOT":"0.0000000000000","MEAN_MOTION":"15.06401538","RA_OF_ASC_NODE":"34.0410","CENTER_NAME":"EARTH","RCS_SIZE":"LARGE","PERIAPSIS":"546.174","ECCENTRICITY":"0.00014940","COUNTRY_CODE":"US","MEAN_ANOMALY":"294.1077","OBJECT_TYPE":"PAYLOAD","SEMIMAJOR_AXIS":"6925.344","EPOCH":"2022-07-13T19:51:56.907936","BSTAR":"-0.00013421000000","OBJECT_ID":"2020-070AW","REV_AT_EPOCH":"9852","EPHEMERIS_TYPE":"0","MEAN_ELEMENT_THEORY":"SGP4","TLE_LINE2":"2 46576  53.0545  34.0410 0001494  66.0068 294.1077 15.06401538 98525","MEAN_MOTION_DOT":"-0.00002280","FILE":"3513188","NORAD_CAT_ID":"46576","REF_FRAME":"TEME","APOAPSIS":"548.243","CLASSIFICATION_TYPE":"U","DECAY_DATE":null,"TLE_LINE1":"1 46576U 20070AW  22194.82774199 -.00002280  00000-0 -13421-3 0  9990","PERIOD":"95.592","GP_ID":"208063956","ELEMENT_SET_NO":"999","LAUNCH_DATE":"2020-10-06","OBJECT_NAME":"STARLINK-1677","SITE":"AFETR","ARG_OF_PERICENTER":"66.0068","TIME_SYSTEM":"UTC"},{"RCS_SIZE":"LARGE","CENTER_NAME":"EARTH","RA_OF_ASC_NODE":"33.9153","INCLINATION":"53.0538","MEAN_MOTION":"15.06414311","MEAN_MOTION_DDOT":"0.0000000000000","TLE_LINE2":"2 46577  53.0538  33.9153 0001396  74.3576 285.7566 15.06414311 98529","MEAN_ELEMENT_THEORY":"SGP4","REV_AT_EPOCH":"9852","OBJECT_ID":"2020-070AX","EPHEMERIS_TYPE":"0","FILE":"3513188","NORAD_CAT_ID":"46577","MEAN_MOTION_DOT":"0.00000486","OBJECT_TYPE":"PAYLOAD","BSTAR":"0.00005149900000","SEMIMAJOR_AXIS":"6925.305","EPOCH":"2022-07-13T20:34:24.715200","MEAN_ANOMALY":"285.7566","COUNTRY_CODE":"US","ECCENTRICITY":"0.00013960","PERIAPSIS":"546.203","APOAPSIS":"548.136","REF_FRAME":"TEME","SITE":"AFETR","TIME_SYSTEM":"UTC","ARG_OF_PERICENTER":"74.3576","OBJECT_NAME":"STARLINK-1682","LAUNCH_DATE":"2020-10-06","ELEMENT_SET_NO":"999","GP_ID":"208064706","CLASSIFICATION_TYPE":"U","TLE_LINE1":"1 46577U 20070AX  22194.85723050  .00000486  00000-0  51499-4 0  9996","DECAY_DATE":null,"PERIOD":"95.591"},{"TLE_LINE1":"1 46578U 20070AY  22194.83834545 -.00000353  00000-0 -48205-5 0  9994","PERIOD":"95.592","DECAY_DATE":null,"CLASSIFICATION_TYPE":"U","GP_ID":"208064952","OBJECT_NAME":"STARLINK-1683","LAUNCH_DATE":"2020-10-06","ELEMENT_SET_NO":"999","ARG_OF_PERICENTER":"77.0738","TIME_SYSTEM":"UTC","SITE":"AFETR","REF_FRAME":"TEME","APOAPSIS":"548.072","ECCENTRICITY":"0.00012840","COUNTRY_CODE":"US","PERIAPSIS":"546.294","MEAN_ANOMALY":"283.0394","BSTAR":"-0.00000482050000","SEMIMAJOR_AXIS":"6925.318","EPOCH":"2022-07-13T20:07:13.046880","OBJECT_TYPE":"PAYLOAD","FILE":"3513188","MEAN_MOTION_DOT":"-0.00000353","NORAD_CAT_ID":"46578","TLE_LINE2":"2 46578  53.0549  19.0540 0001284  77.0738 283.0394 15.06409986 98738","MEAN_ELEMENT_THEORY":"SGP4","REV_AT_EPOCH":"9873","EPHEMERIS_TYPE":"0","OBJECT_ID":"2020-070AY","MEAN_MOTION":"15.06409986","MEAN_MOTION_DDOT":"0.0000000000000","INCLINATION":"53.0549","RA_OF_ASC_NODE":"19.0540","CENTER_NAME":"EARTH","RCS_SIZE":"LARGE"},{"RA_OF_ASC_NODE":"33.9814","MEAN_MOTION_DDOT":"0.0000000000000","MEAN_MOTION":"15.06403558","INCLINATION":"53.0556","CENTER_NAME":"EARTH","RCS_SIZE":"LARGE","MEAN_ANOMALY":"281.4125","PERIAPSIS":"546.255","COUNTRY_CODE":"US","ECCENTRICITY":"0.00013680","FILE":"3513188","MEAN_MOTION_DOT":"-0.00000451","NORAD_CAT_ID":"46579","REV_AT_EPOCH":"9852","EPHEMERIS_TYPE":"0","OBJECT_ID":"2020-070AZ","TLE_LINE2":"2 46579  53.0556  33.9814 0001368  78.7018 281.4125 15.06403558 98528","MEAN_ELEMENT_THEORY":"SGP4","EPOCH":"2022-07-13T20:13:11.519616","SEMIMAJOR_AXIS":"6925.338","BSTAR":"-0.00001137400000","OBJECT_TYPE":"PAYLOAD","REF_FRAME":"TEME","APOAPSIS":"548.150","GP_ID":"208064960","DECAY_DATE":null,"TLE_LINE1":"1 46579U 20070AZ  22194.84249444 -.00000451  00000-0 -11374-4 0  9999","PERIOD":"95.592","CLASSIFICATION_TYPE":"U","TIME_SYSTEM":"UTC","ARG_OF_PERICENTER":"78.7018","SITE":"AFETR","LAUNCH_DATE":"2020-10-06","ELEMENT_SET_NO":"999","OBJECT_NAME":"STARLINK-1705"},{"APOAPSIS":"548.271","REF_FRAME":"TEME","SITE":"AFETR","ARG_OF_PERICENTER":"74.7038","TIME_SYSTEM":"UTC","LAUNCH_DATE":"2020-10-06","ELEMENT_SET_NO":"999","OBJECT_NAME":"STARLINK-1708","GP_ID":"208064455","CLASSIFICATION_TYPE":"U","TLE_LINE1":"1 46580U 20070BA  22194.82036923 -.00000634  00000-0 -23653-4 0  9991","PERIOD":"95.592","DECAY_DATE":null,"CENTER_NAME":"EARTH","RCS_SIZE":"LARGE","RA_OF_ASC_NODE":"34.0759","INCLINATION":"53.0554","MEAN_MOTION_DDOT":"0.0000000000000","MEAN_MOTION":"15.06399707","EPHEMERIS_TYPE":"0","REV_AT_EPOCH":"9852","OBJECT_ID":"2020-070BA","MEAN_ELEMENT_THEORY":"SGP4","TLE_LINE2":"2 46580  53.0554  34.0759 0001525  74.7038 285.4119 15.06399707 98528","MEAN_MOTION_DOT":"-0.00000634","FILE":"3513188","NORAD_CAT_ID":"46580","OBJECT_TYPE":"PAYLOAD","EPOCH":"2022-07-13T19:41:19.901472","SEMIMAJOR_AXIS":"6925.349","BSTAR":"-0.00002365300000","MEAN_ANOMALY":"285.4119","PERIAPSIS":"546.158","ECCENTRICITY":"0.00015250","COUNTRY_CODE":"US"},{"MEAN_ELEMENT_THEORY":"SGP4","TLE_LINE2":"2 46581  53.0536  31.6333 0001372  82.0836 278.0308 15.06419110 98505","REV_AT_EPOCH":"9850","OBJECT_ID":"2020-070BB","EPHEMERIS_TYPE":"0","FILE":"3512925","MEAN_MOTION_DOT":"0.00001044","NORAD_CAT_ID":"46581","OBJECT_TYPE":"PAYLOAD","BSTAR":"0.00008895000000","SEMIMAJOR_AXIS":"6925.290","EPOCH":"2022-07-13T06:07:15.566592","MEAN_ANOMALY":"278.0308","COUNTRY_CODE":"US","ECCENTRICITY":"0.00013720","PERIAPSIS":"546.205","RCS_SIZE":"LARGE","CENTER_NAME":"EARTH","RA_OF_ASC_NODE":"31.6333","INCLINATION":"53.0536","MEAN_MOTION":"15.06419110","MEAN_MOTION_DDOT":"0.0000000000000","SITE":"AFETR","ARG_OF_PERICENTER":"82.0836","TIME_SYSTEM":"UTC","OBJECT_NAME":"STARLINK-1712","ELEMENT_SET_NO":"999","LAUNCH_DATE":"2020-10-06","GP_ID":"208033611","CLASSIFICATION_TYPE":"U","DECAY_DATE":null,"TLE_LINE1":"1 46581U 20070BB  22194.25504128  .00001044  00000-0  88950-4 0  9991","PERIOD":"95.591","APOAPSIS":"548.105","REF_FRAME":"TEME"},{"RCS_SIZE":"LARGE","CENTER_NAME":"EARTH","RA_OF_ASC_NODE":"29.0147","INCLINATION":"53.0541","MEAN_MOTION":"15.06404576","MEAN_MOTION_DDOT":"0.0000000000000","MEAN_ELEMENT_THEORY":"SGP4","TLE_LINE2":"2 46582  53.0541  29.0147 0001109  79.9261 280.1853 15.06404576 98599","REV_AT_EPOCH":"9859","OBJECT_ID":"2020-070BC","EPHEMERIS_TYPE":"0","FILE":"3513188","MEAN_MOTION_DOT":"-0.00003227","NORAD_CAT_ID":"46582","OBJECT_TYPE":"PAYLOAD","BSTAR":"-0.00019780000000","SEMIMAJOR_AXIS":"6925.335","EPOCH":"2022-07-13T20:05:53.260800","MEAN_ANOMALY":"280.1853","COUNTRY_CODE":"US","ECCENTRICITY":"0.00011090","PERIAPSIS":"546.432","APOAPSIS":"547.968","REF_FRAME":"TEME","SITE":"AFETR","TIME_SYSTEM":"UTC","ARG_OF_PERICENTER":"79.9261","OBJECT_NAME":"STARLINK-1728","ELEMENT_SET_NO":"999","LAUNCH_DATE":"2020-10-06","GP_ID":"208064950","CLASSIFICATION_TYPE":"U","PERIOD":"95.592","TLE_LINE1":"1 46582U 20070BC  22194.83742200 -.00003227  00000-0 -19780-3 0  9992","DECAY_DATE":null}];
